{
  "norad_id": 64941,
  "name": "STARLINK-34740",
  "history": [
    {
      "epoch": "2026-03-28T20:43:39.917280Z",
      "apogee_km": 551.2130770427566,
      "perigee_km": 547.7672752853332,
      "latitude_deg": 4.555947930630149e-05,
      "longitude_deg": 175.8302773991474,
      "height_km": 551.9027048200749,
      "semi_major_axis_km": 6927.627176164045,
      "eccentricity": 0.0002487,
      "inclination_deg": 97.6021,
      "raan_deg": 313.0246,
      "arg_perigee_deg": 67.8809,
      "mean_anomaly_deg": 292.2682,
      "mean_motion_rev_day": 15.05656839
    },
    {
      "epoch": "2026-03-29T04:42:09.996192Z",
      "apogee_km": 551.13708917025,
      "perigee_km": 547.8464655010166,
      "latitude_deg": 6.87125357445734e-05,
      "longitude_deg": 56.20492306046958,
      "height_km": 551.9140715708087,
      "semi_major_axis_km": 6927.6287773356335,
      "eccentricity": 0.0002375,
      "inclination_deg": 97.6018,
      "raan_deg": 313.3521,
      "arg_perigee_deg": 67.1398,
      "mean_anomaly_deg": 293.008,
      "mean_motion_rev_day": 15.05656317
    },
    {
      "epoch": "2026-03-30T04:37:40.072224Z",
      "apogee_km": 551.0599459267514,
      "perigee_km": 547.9411235086218,
      "latitude_deg": 5.680765099730789e-05,
      "longitude_deg": 57.329442768450896,
      "height_km": 551.904854018885,
      "semi_major_axis_km": 6927.637534717686,
      "eccentricity": 0.0002251,
      "inclination_deg": 97.6019,
      "raan_deg": 314.3345,
      "arg_perigee_deg": 65.0661,
      "mean_anomaly_deg": 295.08,
      "mean_motion_rev_day": 15.05653462
    },
    {
      "epoch": "2026-03-30T04:37:40.073088Z",
      "apogee_km": 551.0598766503763,
      "perigee_km": 547.9411927849969,
      "latitude_deg": 5.782869194859501e-05,
      "longitude_deg": 57.3294390230696,
      "height_km": 551.9048832325149,
      "semi_major_axis_km": 6927.637534717686,
      "eccentricity": 0.00022509,
      "inclination_deg": 97.6019,
      "raan_deg": 314.3345,
      "arg_perigee_deg": 65.0661,
      "mean_anomaly_deg": 295.08,
      "mean_motion_rev_day": 15.05653462
    },
    {
      "epoch": "2026-03-30T12:36:10.087200Z",
      "apogee_km": 551.1215060879167,
      "perigee_km": 547.8710605513843,
      "latitude_deg": 7.898161699115883e-05,
      "longitude_deg": -62.29554397342469,
      "height_km": 551.9402692220733,
      "semi_major_axis_km": 6927.63328331965,
      "eccentricity": 0.0002346,
      "inclination_deg": 97.6018,
      "raan_deg": 314.6621,
      "arg_perigee_deg": 67.6688,
      "mean_anomaly_deg": 292.4788,
      "mean_motion_rev_day": 15.05654848
    },
    {
      "epoch": "2026-03-30T20:34:39.941472Z",
      "apogee_km": 551.04427472925,
      "perigee_km": 547.9156243624948,
      "latitude_deg": -2.9457062848150108e-05,
      "longitude_deg": 178.07995805410326,
      "height_km": 551.8969550855552,
      "semi_major_axis_km": 6927.616949545872,
      "eccentricity": 0.00022581,
      "inclination_deg": 97.6019,
      "raan_deg": 314.9895,
      "arg_perigee_deg": 65.6609,
      "mean_anomaly_deg": 294.4853,
      "mean_motion_rev_day": 15.05660173
    },
    {
      "epoch": "2026-03-31T04:33:10.048032Z",
      "apogee_km": 550.9905965425269,
      "perigee_km": 548.0186382886559,
      "latitude_deg": 4.759088832099029e-05,
      "longitude_deg": 58.454381431061215,
      "height_km": 551.9285244029638,
      "semi_major_axis_km": 6927.641617415591,
      "eccentricity": 0.0002145,
      "inclination_deg": 97.6017,
      "raan_deg": 315.3169,
      "arg_perigee_deg": 64.5735,
      "mean_anomaly_deg": 295.5714,
      "mean_motion_rev_day": 15.05652131
    },
    {
      "epoch": "2026-04-01T04:28:40.099872Z",
      "apogee_km": 551.0444725363195,
      "perigee_km": 547.9505909544423,
      "latitude_deg": 2.2363164381749463e-05,
      "longitude_deg": 59.5793047197524,
      "height_km": 551.8145850800164,
      "semi_major_axis_km": 6927.634531745381,
      "eccentricity": 0.0002233,
      "inclination_deg": 97.6014,
      "raan_deg": 316.2996,
      "arg_perigee_deg": 61.2179,
      "mean_anomaly_deg": 298.9272,
      "mean_motion_rev_day": 15.05654441
    },
    {
      "epoch": "2026-04-02T13:58:22.052352Z",
      "apogee_km": 551.1131153968681,
      "perigee_km": 547.8571329984961,
      "latitude_deg": 3.210276441731447e-05,
      "longitude_deg": -82.84388739185212,
      "height_km": 551.775830187057,
      "semi_major_axis_km": 6927.622124197682,
      "eccentricity": 0.000235,
      "inclination_deg": 97.6014,
      "raan_deg": 317.6768,
      "arg_perigee_deg": 61.7337,
      "mean_anomaly_deg": 298.4127,
      "mean_motion_rev_day": 15.05658486
    },
    {
      "epoch": "2026-04-03T18:40:57.495936Z",
      "apogee_km": 550.7924502087208,
      "perigee_km": 548.1585719320119,
      "latitude_deg": -1.576798905732988e-05,
      "longitude_deg": -153.49313386043735,
      "height_km": 551.9966073850712,
      "semi_major_axis_km": 6927.612511070366,
      "eccentricity": 0.0001901,
      "inclination_deg": 97.6029,
      "raan_deg": 318.8543,
      "arg_perigee_deg": 65.7361,
      "mean_anomaly_deg": 294.4064,
      "mean_motion_rev_day": 15.0566162
    },
    {
      "epoch": "2026-04-04T15:25:03.821376Z",
      "apogee_km": 550.9455902549371,
      "perigee_km": 548.0332161150382,
      "latitude_deg": 4.399272905539509e-05,
      "longitude_deg": -104.51955832415308,
      "height_km": 552.0008877727377,
      "semi_major_axis_km": 6927.626403184988,
      "eccentricity": 0.0002102,
      "inclination_deg": 97.6022,
      "raan_deg": 319.7058,
      "arg_perigee_deg": 67.7906,
      "mean_anomaly_deg": 292.3544,
      "mean_motion_rev_day": 15.05657091
    },
    {
      "epoch": "2026-04-05T13:44:52.348704Z",
      "apogee_km": 550.8361829012665,
      "perigee_km": 548.1995174652866,
      "latitude_deg": -1.3721465807771818e-05,
      "longitude_deg": -79.47241575838245,
      "height_km": 552.1398830147407,
      "semi_major_axis_km": 6927.654850183276,
      "eccentricity": 0.0001903,
      "inclination_deg": 97.6032,
      "raan_deg": 320.6222,
      "arg_perigee_deg": 70.4969,
      "mean_anomaly_deg": 289.6463,
      "mean_motion_rev_day": 15.05647817
    },
    {
      "epoch": "2026-04-05T13:44:52.349568Z",
      "apogee_km": 550.8361829012665,
      "perigee_km": 548.1995174652866,
      "latitude_deg": -1.3721466617206992e-05,
      "longitude_deg": -79.47241936823812,
      "height_km": 552.1398830147407,
      "semi_major_axis_km": 6927.654850183276,
      "eccentricity": 0.0001903,
      "inclination_deg": 97.6032,
      "raan_deg": 320.6222,
      "arg_perigee_deg": 70.4969,
      "mean_anomaly_deg": 289.6463,
      "mean_motion_rev_day": 15.05647817
    },
    {
      "epoch": "2026-04-06T02:30:28.400832Z",
      "apogee_km": 550.7882574488749,
      "perigee_km": 548.2199037946448,
      "latitude_deg": 1.8770650496551026e-06,
      "longitude_deg": 89.12742877254234,
      "height_km": 552.0773033618152,
      "semi_major_axis_km": 6927.641080621759,
      "eccentricity": 0.00018537,
      "inclination_deg": 97.6033,
      "raan_deg": 321.1463,
      "arg_perigee_deg": 67.6139,
      "mean_anomaly_deg": 292.5284,
      "mean_motion_rev_day": 15.05652306
    },
    {
      "epoch": "2026-04-07T12:00:10.119168Z",
      "apogee_km": 550.8212820931667,
      "perigee_km": 548.1499908045525,
      "latitude_deg": -2.6156061204373565e-05,
      "longitude_deg": -53.29648515143258,
      "height_km": 552.0451979568129,
      "semi_major_axis_km": 6927.622636448859,
      "eccentricity": 0.0001928,
      "inclination_deg": 97.6037,
      "raan_deg": 322.5218,
      "arg_perigee_deg": 67.8951,
      "mean_anomaly_deg": 292.248,
      "mean_motion_rev_day": 15.05658319
    },
    {
      "epoch": "2026-04-08T13:31:22.180224Z",
      "apogee_km": 551.0921271578491,
      "perigee_km": 547.9080465999787,
      "latitude_deg": -3.3470701605819926e-05,
      "longitude_deg": -76.09701164154644,
      "height_km": 552.0754197372553,
      "semi_major_axis_km": 6927.637086878914,
      "eccentricity": 0.00022981,
      "inclination_deg": 97.6027,
      "raan_deg": 323.5696,
      "arg_perigee_deg": 72.2197,
      "mean_anomaly_deg": 287.928,
      "mean_motion_rev_day": 15.05653608
    },
    {
      "epoch": "2026-04-09T21:25:22.020672Z",
      "apogee_km": 550.9930251589849,
      "perigee_km": 547.9767385916157,
      "latitude_deg": -5.776956837491957e-05,
      "longitude_deg": 165.40366781298263,
      "height_km": 552.0579300483806,
      "semi_major_axis_km": 6927.6218818753,
      "eccentricity": 0.0002177,
      "inclination_deg": 97.604,
      "raan_deg": 324.8797,
      "arg_perigee_deg": 71.0948,
      "mean_anomaly_deg": 289.0514,
      "mean_motion_rev_day": 15.05658565
    },
    {
      "epoch": "2026-04-10T13:22:22.429056Z",
      "apogee_km": 551.0220489118292,
      "perigee_km": 547.9918974379616,
      "latitude_deg": 7.64532537181872e-05,
      "longitude_deg": -73.84730113301454,
      "height_km": 552.1669038470079,
      "semi_major_axis_km": 6927.643973174895,
      "eccentricity": 0.0002187,
      "inclination_deg": 97.6047,
      "raan_deg": 325.5355,
      "arg_perigee_deg": 74.6273,
      "mean_anomaly_deg": 285.5196,
      "mean_motion_rev_day": 15.05651363
    },
    {
      "epoch": "2026-04-11T21:16:22.440576Z",
      "apogee_km": 551.0638000144991,
      "perigee_km": 547.9394349980048,
      "latitude_deg": 2.6070775602175437e-05,
      "longitude_deg": 167.65256854122302,
      "height_km": 552.1275951432577,
      "semi_major_axis_km": 6927.638617506252,
      "eccentricity": 0.0002255,
      "inclination_deg": 97.6053,
      "raan_deg": 326.8455,
      "arg_perigee_deg": 73.8136,
      "mean_anomaly_deg": 286.3339,
      "mean_motion_rev_day": 15.05653109
    }
  ]
}